{"type": "FeatureCollection", "features": [ {"type": "Feature", "properties": {"norad_id": 34327, "name": "COSMOS 2251 DEB", "group": "cosmos-2251-debris", "lat": 19.47458013836742, "lon": 2.6562074185604345, "alt_km": 621.2641426857472, "timestamp": "2025-12-04T10:51:50.499973+00:00", "meta": {"OBJECT_NAME": "COSMOS 2251 DEB", "OBJECT_ID": "1993-036NZ", "EPOCH": "2025-12-04T01:00:28.832832", "MEAN_MOTION": 14.88875832, "ECCENTRICITY": 0.0032251, "INCLINATION": 73.9938, "RA_OF_ASC_NODE": 189.3043, "ARG_OF_PERICENTER": 7.4924, "MEAN_ANOMALY": 111.6918, "EPHEMERIS_TYPE": 0, "CLASSIFICATION_TYPE": "U", "NORAD_CAT_ID": 34327, "ELEMENT_SET_NO": 999, "REV_AT_EPOCH": 89378, "BSTAR": 0.0024595, "MEAN_MOTION_DOT": 0.00023337, "MEAN_MOTION_DDOT": 0}, "tle": {"line1": "1 34327U 93036NZ  25338.04200038  .00023337  00000+0  24595-2 0  9992", "line2": "2 34327  73.9938 189.3043 0032251   7.4924 111.6918 14.88875832893783"}}, "geometry": {"type": "Point", "coordinates": [2.6562074185604345, 19.47458013836742]}}, {"type": "Feature", "properties": {"norad_id": 34340, "name": "COSMOS 2251 DEB", "group": "cosmos-2251-debris", "lat": -24.372034596005022, "lon": -45.60225210217013, "alt_km": 990.1114484358013, "timestamp": "2025-12-04T10:51:50.499983+00:00", "meta": {"OBJECT_NAME": "COSMOS 2251 DEB", "OBJECT_ID": "1993-036PN", "EPOCH": "2025-12-04T00:48:34.863840", "MEAN_MOTION": 13.79527711, "ECCENTRICITY": 0.0281815, "INCLINATION": 74.0789, "RA_OF_ASC_NODE": 322.5268, "ARG_OF_PERICENTER": 72.4808, "MEAN_ANOMALY": 345.6837, "EPHEMERIS_TYPE": 0, "CLASSIFICATION_TYPE": "U", "NORAD_CAT_ID": 34340, "ELEMENT_SET_NO": 999, "REV_AT_EPOCH": 84148, "BSTAR": 0.0013639, "MEAN_MOTION_DOT": 1.872e-05, "MEAN_MOTION_DDOT": 0}, "tle": {"line1": "1 34340U 93036PN  25338.03373685  .00001872  00000+0  13639-2 0  9992", "line2": "2 34340  74.0789 322.5268 0281815  72.4808 345.6837 13.79527711841487"}}, "geometry": {"type": "Point", "coordinates": [-45.60225210217013, -24.372034596005022]}}, {"type": "Feature", "properties": {"norad_id": 34343, "name": "COSMOS 2251 DEB", "group": "cosmos-2251-debris", "lat": -68.06268866497956, "lon": -29.021179238769722, "alt_km": 680.578715931294, "timestamp": "2025-12-04T10:51:50.499995+00:00", "meta": {"OBJECT_NAME": "COSMOS 2251 DEB", "OBJECT_ID": "1993-036PR", "EPOCH": "2025-12-03T17:53:33.976032", "MEAN_MOTION": 14.69163942, "ECCENTRICITY": 0.00225627, "INCLINATION": 74.0195, "RA_OF_ASC_NODE": 106.99, "ARG_OF_PERICENTER": 25.3906, "MEAN_ANOMALY": 91.0472, "EPHEMERIS_TYPE": 0, "CLASSIFICATION_TYPE": "U", "NORAD_CAT_ID": 34343, "ELEMENT_SET_NO": 999, "REV_AT_EPOCH": 88598, "BSTAR": 0.0023750705, "MEAN_MOTION_DOT": 0.00014028, "MEAN_MOTION_DDOT": 0}, "tle": {"line1": "1 34343U 93036PR  25337.74553213  .00014028  00000+0  23751-2 0  9992", "line2": "2 34343  74.0195 106.9900 0022562  25.3906  91.0472 14.69163942885988"}}, "geometry": {"type": "Point", "coordinates": [-29.021179238769722, -68.06268866497956]}}, {"type": "Feature", "properties": {"norad_id": 34344, "name": "COSMOS 2251 DEB", "group": "cosmos-2251-debris", "lat": 43.26579913172395, "lon": -70.5532471231788, "alt_km": 945.6420647224822, "timestamp": "2025-12-04T10:51:50.500005+00:00", "meta": {"OBJECT_NAME": "COSMOS 2251 DEB", "OBJECT_ID": "1993-036PS", "EPOCH": "2025-12-02T12:47:13.899264", "MEAN_MOTION": 14.16298308, "ECCENTRICITY": 0.01551689, "INCLINATION": 73.9766, "RA_OF_ASC_NODE": 128.565, "ARG_OF_PERICENTER": 314.8879, "MEAN_ANOMALY": 114.6708, "EPHEMERIS_TYPE": 0, "CLASSIFICATION_TYPE": "U", "NORAD_CAT_ID": 34344, "ELEMENT_SET_NO": 999, "REV_AT_EPOCH": 85952, "BSTAR": 0.0017796422, "MEAN_MOTION_DOT": 3.944e-05, "MEAN_MOTION_DDOT": 0}, "tle": {"line1": "1 34344U 93036PS  25336.53279976  .00003944  00000+0  17796-2 0  9997", "line2": "2 34344  73.9766 128.5650 0155168 314.8879 114.6708 14.16298308859529"}}, "geometry": {"type": "Point", "coordinates": [-70.5532471231788, 43.26579913172395]}}, {"type": "Feature", "properties": {"norad_id": 34346, "name": "COSMOS 2251 DEB", "group": "cosmos-2251-debris", "lat": 21.415817961306505, "lon": -26.90975873682926, "alt_km": 978.800137479463, "timestamp": "2025-12-04T10:51:50.500016+00:00", "meta": {"OBJECT_NAME": "COSMOS 2251 DEB", "OBJECT_ID": "1993-036PU", "EPOCH": "2025-12-04T00:44:15.656064", "MEAN_MOTION": 13.99654077, "ECCENTRICITY": 0.0206751, "INCLINATION": 73.9943, "RA_OF_ASC_NODE": 327.3581, "ARG_OF_PERICENTER": 148.355, "MEAN_ANOMALY": 270.8429, "EPHEMERIS_TYPE": 0, "CLASSIFICATION_TYPE": "U", "NORAD_CAT_ID": 34346, "ELEMENT_SET_NO": 999, "REV_AT_EPOCH": 85288, "BSTAR": 0.0013656, "MEAN_MOTION_DOT": 2.378e-05, "MEAN_MOTION_DDOT": 0}, "tle": {"line1": "1 34346U 93036PU  25338.03073676  .00002378  00000+0  13656-2 0  9996", "line2": "2 34346  73.9943 327.3581 0206751 148.3550 270.8429 13.99654077852887"}}, "geometry": {"type": "Point", "coordinates": [-26.90975873682926, 21.415817961306505]}}, {"type": "Feature", "properties": {"norad_id": 34383, "name": "COSMOS 2251 DEB", "group": "cosmos-2251-debris", "lat": -39.407869413320334, "lon": 148.39780400372848, "alt_km": 551.4827360352701, "timestamp": "2025-12-04T10:51:50.500027+00:00", "meta": {"OBJECT_NAME": "COSMOS 2251 DEB", "OBJECT_ID": "1993-036PY", "EPOCH": "2025-12-03T17:09:13.282848", "MEAN_MOTION": 15.07596114, "ECCENTRICITY": 0.0003066, "INCLINATION": 74.021, "RA_OF_ASC_NODE": 316.2987, "ARG_OF_PERICENTER": 34.5344, "MEAN_ANOMALY": 143.2673, "EPHEMERIS_TYPE": 0, "CLASSIFICATION_TYPE": "U", "NORAD_CAT_ID": 34383, "ELEMENT_SET_NO": 999, "REV_AT_EPOCH": 88977, "BSTAR": 0.0049703604, "MEAN_MOTION_DOT": 0.00076449, "MEAN_MOTION_DDOT": 0}, "tle": {"line1": "1 34383U 93036PY  25337.71473707  .00076449  00000+0  49704-2 0  9993", "line2": "2 34383  74.0210 316.2987 0003066  34.5344 143.2673 15.07596114889775"}}, "geometry": {"type": "Point", "coordinates": [148.39780400372848, -39.407869413320334]}}, {"type": "Feature", "properties": {"norad_id": 34387, "name": "COSMOS 2251 DEB", "group": "cosmos-2251-debris", "lat": -69.7493941684744, "lon": 176.43114689682645, "alt_km": 732.8171212563047, "timestamp": "2025-12-04T10:51:50.500115+00:00", "meta": {"OBJECT_NAME": "COSMOS 2251 DEB", "OBJECT_ID": "1993-036QC", "EPOCH": "2025-12-04T03:36:01.498176", "MEAN_MOTION": 14.43791809, "ECCENTRICITY": 0.0038576, "INCLINATION": 74.0402, "RA_OF_ASC_NODE": 227.8601, "ARG_OF_PERICENTER": 326.4317, "MEAN_ANOMALY": 184.0811, "EPHEMERIS_TYPE": 0, "CLASSIFICATION_TYPE": "U", "NORAD_CAT_ID": 34387, "ELEMENT_SET_NO": 999, "REV_AT_EPOCH": 88057, "BSTAR": 0.00054182, "MEAN_MOTION_DOT": 1.834e-05, "MEAN_MOTION_DDOT": 0}, "tle": {"line1": "1 34387U 93036QC  25338.15001734  .00001834  00000+0  54182-3 0  9996", "line2": "2 34387  74.0402 227.8601 0038576 326.4317 184.0811 14.43791809880572"}}, "geometry": {"type": "Point", "coordinates": [176.43114689682645, -69.7493941684744]}}, {"type": "Feature", "properties": {"norad_id": 34388, "name": "COSMOS 2251 DEB", "group": "cosmos-2251-debris", "lat": 70.77001297499234, "lon": 3.5201906499141282, "alt_km": 730.8688270286175, "timestamp": "2025-12-04T10:51:50.500129+00:00", "meta": {"OBJECT_NAME": "COSMOS 2251 DEB", "OBJECT_ID": "1993-036QD", "EPOCH": "2025-12-04T04:28:23.738304", "MEAN_MOTION": 14.492922, "ECCENTRICITY": 0.0014317, "INCLINATION": 74.04, "RA_OF_ASC_NODE": 239.1448, "ARG_OF_PERICENTER": 287.7197, "MEAN_ANOMALY": 224.3483, "EPHEMERIS_TYPE": 0, "CLASSIFICATION_TYPE": "U", "NORAD_CAT_ID": 34388, "ELEMENT_SET_NO": 999, "REV_AT_EPOCH": 88031, "BSTAR": 0.0016241, "MEAN_MOTION_DOT": 6.183e-05, "MEAN_MOTION_DDOT": 0}, "tle": {"line1": "1 34388U 93036QD  25338.18638586  .00006183  00000+0  16241-2 0  9996", "line2": "2 34388  74.0400 239.1448 0014317 287.7197 224.3483 14.49292200880310"}}, "geometry": {"type": "Point", "coordinates": [3.5201906499141282, 70.77001297499234]}}, {"type": "Feature", "properties": {"norad_id": 34389, "name": "COSMOS 2251 DEB", "group": "cosmos-2251-debris", "lat": -3.878680347788483, "lon": -95.93275435563413, "alt_km": 737.9373400235563, "timestamp": "2025-12-04T10:51:50.500140+00:00", "meta": {"OBJECT_NAME": "COSMOS 2251 DEB", "OBJECT_ID": "1993-036QE", "EPOCH": "2025-12-04T04:47:38.940864", "MEAN_MOTION": 14.41496532, "ECCENTRICITY": 0.00285, "INCLINATION": 74.0189, "RA_OF_ASC_NODE": 265.6493, "ARG_OF_PERICENTER": 19.5826, "MEAN_ANOMALY": 104.6989, "EPHEMERIS_TYPE": 0, "CLASSIFICATION_TYPE": "U", "NORAD_CAT_ID": 34389, "ELEMENT_SET_NO": 999, "REV_AT_EPOCH": 87889, "BSTAR": 0.00076935, "MEAN_MOTION_DOT": 2.484e-05, "MEAN_MOTION_DDOT": 0}, "tle": {"line1": "1 34389U 93036QE  25338.19975626  .00002484  00000+0  76935-3 0  9994", "line2": "2 34389  74.0189 265.6493 0028500  19.5826 104.6989 14.41496532878895"}}, "geometry": {"type": "Point", "coordinates": [-95.93275435563413, -3.878680347788483]}}, {"type": "Feature", "properties": {"norad_id": 34396, "name": "COSMOS 2251 DEB", "group": "cosmos-2251-debris", "lat": 24.10110064385264, "lon": 147.57602273774086, "alt_km": 652.0961334896247, "timestamp": "2025-12-04T10:51:50.500150+00:00", "meta": {"OBJECT_NAME": "COSMOS 2251 DEB", "OBJECT_ID": "1993-036QM", "EPOCH": "2025-12-03T22:17:50.230176", "MEAN_MOTION": 14.74011296, "ECCENTRICITY": 0.0007409, "INCLINATION": 74.0273, "RA_OF_ASC_NODE": 141.2363, "ARG_OF_PERICENTER": 184.0532, "MEAN_ANOMALY": 303.8182, "EPHEMERIS_TYPE": 0, "CLASSIFICATION_TYPE": "U", "NORAD_CAT_ID": 34396, "ELEMENT_SET_NO": 999, "REV_AT_EPOCH": 88216, "BSTAR": 0.004134, "MEAN_MOTION_DOT": 0.00027274, "MEAN_MOTION_DDOT": 0}, "tle": {"line1": "1 34396U 93036QM  25337.92905359  .00027274  00000+0  41340-2 0  9993", "line2": "2 34396  74.0273 141.2363 0007409 184.0532 303.8182 14.74011296882168"}}, "geometry": {"type": "Point", "coordinates": [147.57602273774086, 24.10110064385264]}}]}